IRIDIUM 57 [-]          
1 25273U 98019B   23261.86227504  .00000606  00000+0  20638-3 0  9997
2 25273  86.3948  52.1174 0002081  91.7093 268.4342 14.34898305333361
IRIDIUM 69 [-]          
1 25319U 98026A   23261.80293627  .00000928  00000+0  29109-3 0  9998
2 25319  86.4047   4.2687 0001845  26.5763 333.5530 14.39562926331326
IRIDIUM 71 [-]          
1 25320U 98026B   23261.79488856  .00000750  00000+0  23251-3 0  9993
2 25320  86.4041 359.1139 0003625  61.2627 298.8936 14.39904448331837
IRIDIUM 73 [-]          
1 25344U 98032C   23261.90388256  .00000705  00000+0  17679-3 0  9999
2 25344  86.4424 316.9639 0002098  75.5180 284.6257 14.50021720338167
IRIDIUM 82 [-]          
1 25467U 98051A   23261.86400693  .00020304  00000+0  12095-2 0  9994
2 25467  86.3941  53.7043 0150177 134.7866 226.5698 15.01989478327502
IRIDIUM 2 [-]           
1 25527U 98066A   23261.69517988  .00034605  00000+0  87237-3 0  9994
2 25527  85.5172 114.7393 0003736 316.3626  43.7330 15.39715509365532
